CCSDS_OMM_VERS = 2.0
CREATION_DATE  = 
ORIGINATOR     = 

OBJECT_NAME    = XRISM
OBJECT_ID      = 2023-137A
CENTER_NAME    = EARTH
REF_FRAME      = TEME
TIME_SYSTEM    = UTC
MEAN_ELEMENT_THEORY = SGP/SGP4

EPOCH          = 2026-04-04T03:04:56.995680
MEAN_MOTION    = 15.11816843
ECCENTRICITY   = .00078361
INCLINATION    = 31.0011
RA_OF_ASC_NODE = 119.0851
ARG_OF_PERICENTER = 294.3915
MEAN_ANOMALY   = 65.5905

EPHEMERIS_TYPE = 0
CLASSIFICATION_TYPE = U
NORAD_CAT_ID   = 57800
ELEMENT_SET_NO = 999
REV_AT_EPOCH   = 14164
BSTAR          = .5358842E-3
MEAN_MOTION_DOT = .9491E-4
MEAN_MOTION_DDOT = 0

CCSDS_OMM_VERS = 2.0
CREATION_DATE  = 
ORIGINATOR     = 

OBJECT_NAME    = ACS3
OBJECT_ID      = 2024-077B
CENTER_NAME    = EARTH
REF_FRAME      = TEME
TIME_SYSTEM    = UTC
MEAN_ELEMENT_THEORY = SGP/SGP4

EPOCH          = 2026-04-04T06:20:38.493024
MEAN_MOTION    = 13.90880919
ECCENTRICITY   = .00733985
INCLINATION    = 97.1950
RA_OF_ASC_NODE = 29.6290
ARG_OF_PERICENTER = 18.9723
MEAN_ANOMALY   = 341.4151

EPHEMERIS_TYPE = 0
CLASSIFICATION_TYPE = U
NORAD_CAT_ID   = 59588
ELEMENT_SET_NO = 999
REV_AT_EPOCH   = 9775
BSTAR          = .26894103E-1
MEAN_MOTION_DOT = .3453E-3
MEAN_MOTION_DDOT = 0

CCSDS_OMM_VERS = 2.0
CREATION_DATE  = 
ORIGINATOR     = 

OBJECT_NAME    = HTV-X1
OBJECT_ID      = 2025-241A
CENTER_NAME    = EARTH
REF_FRAME      = TEME
TIME_SYSTEM    = UTC
MEAN_ELEMENT_THEORY = SGP/SGP4

EPOCH          = 2026-04-04T05:07:04.448352
MEAN_MOTION    = 15.32530492
ECCENTRICITY   = .00073109
INCLINATION    = 51.6358
RA_OF_ASC_NODE = 310.0349
ARG_OF_PERICENTER = 271.2377
MEAN_ANOMALY   = 88.7767

EPHEMERIS_TYPE = 0
CLASSIFICATION_TYPE = U
NORAD_CAT_ID   = 66174
ELEMENT_SET_NO = 999
REV_AT_EPOCH   = 2485
BSTAR          = .28690735E-3
MEAN_MOTION_DOT = .8792E-4
MEAN_MOTION_DDOT = 0

CCSDS_OMM_VERS = 2.0
CREATION_DATE  = 
ORIGINATOR     = 

OBJECT_NAME    = SZ-21 MODULE
OBJECT_ID      = 2025-246C
CENTER_NAME    = EARTH
REF_FRAME      = TEME
TIME_SYSTEM    = UTC
MEAN_ELEMENT_THEORY = SGP/SGP4

EPOCH          = 2026-04-04T06:29:10.005216
MEAN_MOTION    = 15.70682632
ECCENTRICITY   = .00032252
INCLINATION    = 41.4750
RA_OF_ASC_NODE = 45.6530
ARG_OF_PERICENTER = 227.1909
MEAN_ANOMALY   = 132.8663

EPHEMERIS_TYPE = 0
CLASSIFICATION_TYPE = U
NORAD_CAT_ID   = 66515
ELEMENT_SET_NO = 999
REV_AT_EPOCH   = 2209
BSTAR          = .47836762E-3
MEAN_MOTION_DOT = .61134E-3
MEAN_MOTION_DDOT = 0

